EUTELSAT 8 WEST B       
1 40875U 15039B   25253.30172429 -.00000068  00000+0  00000+0 0  9990
2 40875   0.0667 356.5655 0003694 174.0243 279.6134  1.00272027 36858
EUTELSAT 9B             
1 41310U 16005A   25253.30510432  .00000059  00000+0  00000+0 0  9998
2 41310   0.0421  69.1670 0002236 138.2629 260.9831  1.00271364 35316
EUTELSAT 65 WEST A      
1 41382U 16014A   25253.36086506 -.00000279  00000+0  00000+0 0  9998
2 41382   0.0670  33.7048 0002239 134.2451 246.3883  1.00273964 34726
EUTELSAT 117 WEST B     
1 41589U 16038B   25253.38378131 -.00000014  00000+0  00000+0 0  9990
2 41589   0.0184 313.8809 0000221 112.1871 304.7650  1.00271540 33854
EUTELSAT 172B           
1 42741U 17029B   25253.35530802 -.00000008  00000+0  00000+0 0  9997
2 42741   0.0170 160.4859 0000083 294.5197 194.5468  1.00272002 30924
EUTELSAT 7C             
1 44334U 19034B   25252.80523650  .00000046  00000+0  00000+0 0  9998
2 44334   0.0724 185.1548 0003195 331.1185 129.6918  1.00270771  4022
EUTELSAT 5 WEST B       
1 44624U 19067A   25253.30233097 -.00000044  00000+0  00000+0 0  9994
2 44624   0.0896 315.2292 0003198 221.4463 276.7618  1.00272569 21633
EUTELSAT KONNECT        
1 45027U 20005B   25253.30475765  .00000047  00000+0  00000+0 0  9998
2 45027   0.0620 100.6006 0001715  75.0358 290.8625  1.00270442 21525
